OBJECT_NAME,OBJECT_ID,EPOCH,MEAN_MOTION,ECCENTRICITY,INCLINATION,RA_OF_ASC_NODE,ARG_OF_PERICENTER,MEAN_ANOMALY,EPHEMERIS_TYPE,CLASSIFICATION_TYPE,NORAD_CAT_ID,ELEMENT_SET_NO,REV_AT_EPOCH,BSTAR,MEAN_MOTION_DOT,MEAN_MOTION_DDOT
STARLINK-37578,2026-127J,2026-07-14T02:54:31.359456,15.75318165,.00018842,53.1569,128.2863,31.8338,328.2796,0,U,69451,999,565,.8604341E-3,.133826E-2,0
STARLINK-37577,2026-127K,2026-07-14T08:41:33.686016,15.71988337,.00004233,53.1594,126.9412,111.5911,248.5153,0,U,69452,999,569,-.90689041E-2,-.1083613E-1,0
STARLINK-37500,2026-127L,2026-07-14T05:51:09.970560,15.75264148,.00013118,53.1567,127.6270,102.9816,257.1351,0,U,69453,999,567,.93692358E-3,.145637E-2,0
STARLINK-37575,2026-127M,2026-07-14T10:06:44.393760,15.72274582,.00003977,53.1599,126.5974,184.9127,175.1888,0,U,69454,999,570,-.74971938E-2,-.908296E-2,0
STARLINK-37642,2026-127N,2026-07-14T02:54:58.987584,15.75274687,.00025853,53.1577,128.2867,23.9491,336.1649,0,U,69455,999,565,.11678584E-2,.182591E-2,0
STARLINK-37513,2026-127P,2026-07-14T12:15:36.390240,15.75286510,.00010808,53.1605,125.7157,105.7056,254.4084,0,U,69456,999,572,.92752627E-3,.144287E-2,0
STARLINK-37563,2026-127Q,2026-07-14T14:00:01.999872,15.69000018,.00011436,53.1598,125.8600,98.0672,66.2933,0,U,69457,999,601,-.22733935E-1,-.2357252E-1,0
STARLINK-37565,2026-127R,2026-07-14T02:21:49.552416,15.75283179,.00008106,53.1593,128.1356,73.4794,286.6315,0,U,69458,999,565,.10219733E-2,.159307E-2,0
STARLINK-37498,2026-127S,2026-07-14T02:47:58.394976,15.75239213,.00014341,53.1568,128.2542,59.8611,300.2552,0,U,69459,999,565,.8797153E-3,.136407E-2,0
STARLINK-37384,2026-127T,2026-07-14T02:28:21.841248,15.75271470,.000095,53.1595,128.1714,57.2107,302.9005,0,U,69460,999,565,.82611364E-3,.128109E-2,0
STARLINK-37707,2026-127U,2026-07-14T09:59:52.059264,15.72844206,.00030747,53.1592,126.5630,18.9920,341.1214,0,U,69461,999,570,-.80398663E-2,-.1005877E-1,0
STARLINK-37525,2026-127V,2026-07-14T12:54:49.258368,15.75293365,.00006255,53.1580,125.8959,109.7941,250.3147,0,U,69462,999,572,.12237E-2,.191706E-2,0
STARLINK-37526,2026-127W,2026-07-14T06:44:09.287520,15.72616707,.00003081,53.1586,127.1308,101.2481,258.8572,0,U,69463,999,568,-.92683574E-2,-.1131825E-1,0
STARLINK-37574,2026-127X,2026-07-14T14:00:01.999872,15.67853514,.00013006,53.1597,125.7102,112.6824,123.2707,0,U,69464,999,607,-.23172057E-1,-.2251615E-1,0
STARLINK-37535,2026-127Y,2026-07-14T12:48:19.226304,15.75235288,.00027461,53.1558,125.8625,36.6124,323.5084,0,U,69465,999,572,.13034525E-2,.204039E-2,0
STARLINK-37583,2026-127Z,2026-07-14T12:09:32.516640,15.75363855,.000211,53.1583,125.6838,74.1277,285.9975,0,U,69466,999,572,.14655221E-2,.231526E-2,0
STARLINK-37546,2026-127AA,2026-07-14T12:42:37.273248,15.73714976,.0004006,53.1586,125.8328,53.9184,306.2206,0,U,69467,999,572,-.61884035E-2,-.808836E-2,0
STARLINK-37532,2026-127AB,2026-07-12T11:06:21.711456,15.75292892,.00019954,53.1598,135.6835,14.8603,345.2475,0,U,69468,999,540,.11715046E-2,.183316E-2,0
STARLINK-37708,2026-127AC,2026-07-14T12:43:38.482464,15.71174641,.00029061,53.1587,125.8382,41.1510,318.9727,0,U,69469,999,572,-.73045726E-2,-.851255E-2,0
STARLINK-37686,2026-127AD,2026-07-14T14:00:01.999872,15.69015393,.00010609,53.1594,125.5379,128.3567,190.5657,0,U,69470,999,608,-.22252614E-1,-.2266554E-1,0
STARLINK-37451,2026-127AE,2026-07-14T14:00:01.999872,15.65408959,.00007414,53.1606,124.6906,113.0748,259.2957,0,U,69471,999,608,-.26353603E-1,-.2357598E-1,0
STARLINK-37816,2026-131A,2026-07-14T14:00:01.999872,15.49197968,.00017266,97.2836,217.1863,98.2583,280.4873,0,U,69478,999,608,.11852321E-3,.6363E-4,0
STARLINK-37878,2026-131B,2026-07-14T14:00:01.999872,15.49201717,.00008085,97.2840,217.2398,126.5718,16.0457,0,U,69479,999,526,.2549686E-3,.13807E-3,0
STARLINK-37817,2026-131C,2026-07-14T14:00:01.999872,15.49215160,.00016792,97.2843,217.2585,124.1103,60.3523,0,U,69480,999,608,.41606096E-3,.22624E-3,0
STARLINK-37727,2026-131D,2026-07-14T14:00:01.999872,15.49189769,.00012341,97.2836,217.1903,123.0849,260.0578,0,U,69481,999,608,.476426E-3,.25907E-3,0
STARLINK-37814,2026-131E,2026-07-14T14:00:01.999872,15.49225399,.00018997,97.2842,217.2547,86.3741,90.0010,0,U,69482,999,608,.48387864E-3,.26349E-3,0
STARLINK-37869,2026-131F,2026-07-14T14:00:01.999872,15.49198514,.00012075,97.2842,217.2337,84.0045,46.7805,0,U,69483,999,608,.91831908E-4,.4909E-4,0
STARLINK-37873,2026-131G,2026-07-14T14:00:01.999872,15.49224780,.00007833,97.2838,217.2369,125.0346,12.6238,0,U,69484,999,608,.14880003E-3,.8021E-4,0
STARLINK-37892,2026-131H,2026-07-14T14:00:01.999872,15.49207329,.00012825,97.2843,217.2570,81.8203,97.2993,0,U,69485,999,608,.49512756E-3,.26947E-3,0
STARLINK-37893,2026-131J,2026-07-14T14:00:01.999872,15.49194228,.00014371,97.2841,217.2636,108.6951,88.2734,0,U,69486,999,608,.27201557E-3,.14734E-3,0
STARLINK-37842,2026-131K,2026-07-14T14:00:01.999872,15.49193050,.00013624,97.2841,217.2395,99.5415,39.7262,0,U,69487,999,608,.34847705E-3,.1891E-3,0
STARLINK-37449,2026-131L,2026-07-14T14:00:01.999872,15.49234438,.00009228,97.2844,217.2632,175.3569,18.6508,0,U,69488,999,608,.58824554E-3,.32084E-3,0
STARLINK-37831,2026-131M,2026-07-14T14:00:01.999872,15.49215668,.00012277,97.2838,217.2042,143.4688,277.8844,0,U,69489,999,503,.88648699E-4,.4738E-4,0
STARLINK-37879,2026-131N,2026-07-14T14:00:01.999872,15.49200699,.00009848,97.2838,217.2370,110.9721,25.6798,0,U,69490,999,608,.14216425E-3,.7652E-4,0
STARLINK-37856,2026-131P,2026-07-14T14:00:01.999872,15.49203351,.000193,97.2843,217.2318,88.7624,37.1889,0,U,69491,999,608,.12415197E-3,.6671E-4,0
STARLINK-37568,2026-131Q,2026-07-14T14:00:01.999872,15.49229070,.00017467,97.2841,217.2234,115.9909,345.7352,0,U,69492,999,608,.30871229E-3,.16759E-3,0
STARLINK-37855,2026-131R,2026-07-14T14:00:01.999872,15.49149286,.00016467,97.2845,217.3096,74.4397,235.7839,0,U,69493,999,608,.55662427E-3,.30257E-3,0
STARLINK-37854,2026-131S,2026-07-14T14:00:01.999872,15.49213230,.00019084,97.2842,217.2645,120.6342,77.6398,0,U,69494,999,608,.44209075E-3,.24048E-3,0
STARLINK-37789,2026-131T,2026-07-14T14:00:01.999872,15.49204099,.00016219,97.2842,217.2497,78.6906,83.8689,0,U,69495,999,608,.47316177E-3,.25741E-3,0
STARLINK-37839,2026-131U,2026-07-14T14:00:01.999872,15.49195839,.00016372,97.2838,217.2436,92.2492,59.9072,0,U,69496,999,608,.16607793E-3,.8955E-4,0
STARLINK-37798,2026-131V,2026-07-14T14:00:01.999872,15.49219945,.00018348,97.2839,217.2507,98.0155,70.3200,0,U,69497,999,608,.17244594E-3,.931E-4,0
STARLINK-37853,2026-131W,2026-07-14T12:54:42.696288,15.75314799,.00008345,97.2831,217.3945,57.6832,302.4514,0,U,69498,999,522,.10292059E-2,.157083E-2,0
STARLINK-37849,2026-131X,2026-07-14T14:00:01.999872,15.49204481,.00011942,97.2844,217.2263,107.2818,2.9916,0,U,69499,999,609,.29719465E-3,.16115E-3,0
STARLINK-37835,2026-131Y,2026-07-14T14:00:01.999872,15.49202500,.00008747,97.2843,217.2292,122.7675,354.5449,0,U,69500,999,537,.24979021E-3,.13524E-3,0
STARLINK-37843,2026-131Z,2026-07-14T14:00:01.999872,15.49204925,.00011954,97.2842,217.2204,106.7236,348.1923,0,U,69501,999,609,.34624677E-3,.18796E-3,0
STARLINK-37536,2026-133A,2026-07-14T10:00:50.429376,15.49332749,.00012351,53.1583,188.5763,77.5290,282.5857,0,U,69508,999,503,.49337804E-3,.27109E-3,0
STARLINK-37341,2026-133B,2026-07-14T06:57:43.344000,15.49328285,.00012873,53.1588,189.2058,87.6720,272.4437,0,U,69509,999,502,.52565994E-3,.28915E-3,0
STARLINK-36536,2026-133C,2026-07-14T14:00:01.999872,15.35416229,.00013154,53.1598,187.4585,75.5511,286.3516,0,U,69510,999,606,-.53212909E-3,-.18905E-3,0
STARLINK-37420,2026-133D,2026-07-14T14:00:01.999872,15.33564481,.00013338,53.1593,187.2287,76.0372,38.0931,0,U,69511,999,612,-.58595108E-3,-.19603E-3,0
STARLINK-37511,2026-133E,2026-07-14T14:00:01.999872,15.33591678,.00010454,53.1601,187.2907,72.1396,11.3220,0,U,69512,999,612,-.28743416E-3,-.9826E-4,0
STARLINK-37552,2026-133F,2026-07-14T08:29:47.289984,15.49323946,.00011839,53.1584,188.8889,95.4153,264.6991,0,U,69513,999,629,.40604659E-3,.2221E-3,0
STARLINK-37607,2026-133G,2026-07-14T14:00:01.999872,15.35420331,.00013785,53.1601,187.3501,98.7708,314.3997,0,U,69514,999,612,-.61421907E-3,-.21758E-3,0
STARLINK-37232,2026-133H,2026-07-14T09:27:00.273888,15.49336926,.00009531,53.1590,188.4162,85.4350,274.6768,0,U,69515,999,503,.1715407E-3,.9113E-4,0
STARLINK-37323,2026-133J,2026-07-14T14:00:01.999872,15.33571490,.00015821,53.1582,187.1089,115.9253,55.7384,0,U,69516,999,612,-.63757954E-3,-.21298E-3,0
STARLINK-37357,2026-133K,2026-07-14T06:55:52.326048,15.49297144,.00013792,53.1578,189.1905,57.8670,302.2472,0,U,69517,999,627,.22385996E-3,.12016E-3,0
STARLINK-37408,2026-133L,2026-07-14T13:31:36.663456,15.34602792,.00019745,53.1596,187.3326,97.2625,262.8602,0,U,69518,999,633,-.58793651E-2,-.195235E-2,0
STARLINK-37570,2026-133M,2026-07-14T09:30:50.139360,15.49307309,.00012236,53.1593,188.4277,108.9074,251.2068,0,U,69519,999,630,.6557189E-3,.36187E-3,0
STARLINK-37510,2026-133N,2026-07-14T06:18:21.447936,15.49323804,.00009944,53.1587,189.0168,95.6911,264.4212,0,U,69520,999,628,.35853284E-3,.19552E-3,0
STARLINK-37586,2026-133P,2026-07-14T14:00:01.999872,15.33576591,.0001288,53.1580,187.0547,103.8129,91.7325,0,U,69521,999,612,-.68603634E-3,-.22886E-3,0
STARLINK-37379,2026-133Q,2026-07-14T14:00:01.999872,15.43641576,.00020355,53.1590,187.2022,112.6847,15.1732,0,U,69522,999,612,-.74772733E-1,-.3017E-1,0
STARLINK-37429,2026-133R,2026-07-14T05:00:07.272000,15.49328007,.00010585,53.1588,189.3901,93.6865,266.4265,0,U,69523,999,627,.68584231E-3,.37906E-3,0
STARLINK-37352,2026-133S,2026-07-14T11:49:13.060992,15.47780932,.00013013,53.1599,187.5918,125.9612,234.1517,0,U,69524,999,632,-.17482158E-1,-.841827E-2,0
STARLINK-37490,2026-133T,2026-07-14T14:00:01.999872,15.35414997,.00021078,53.1579,187.0201,89.3580,123.4492,0,U,69525,999,612,-.66864515E-3,-.23644E-3,0
